#dP2019 11 28  0  0  0.00000000      97 __u+U IGS08 FIT  IAC
## 2081 345600.00000000   900.00000000 58815 0.0000000000000
+  113   C01C02C03C04C05C06C07C08C09C10C11C12C13C14C16C19C20
+        C21C22C23C24C25C26C27C28C29C30C32C33C34C35C36C37E01
+        E02E03E04E05E07E08E09E11E12E13E14E15E18E19E21E24E25
+        E26E27E30E31E33E36G01G02G03G04G05G06G07G08G09G10G11
+        G12G13G14G15G16G17G18G19G20G21G22G23G24G25G26G27G28
+        G29G30G31G32J01J02J03J07R01R02R03R05R07R08R09R11R12
+        R13R14R15R16R17R18R19R20R21R23R26  0  0  0  0  0  0
++        13 13 13 13 12  8  8  8  8  8  7  7  8  7  8  7  7
++         7  7  8  7  8  7  7  7  7  7  7  8  7  8  7  8  4
++         4  4  4  4  3  3  4  4  4  4  4  5  4  4  4  4  4
++         4  4  3  4  5  4  3  3  3  3  3  3  3  3  3  3  3
++         3  3  3  3  3  3  3  3  3  3  3  3  3  3  3  3  3
++         3  3  3  3  8  8  8 13  6  5  5  5  5  5  5  5  5
++         6  5  5  6  5  5  6  6  5  5  7  0  0  0  0  0  0
%c M  cc GPS ccc cccc cccc cccc cccc ccccc ccccc ccccc ccccc
%c cc cc ccc ccc cccc cccc cccc cccc ccccc ccccc ccccc ccccc
%f  1.2500000  1.025000000  0.00000000000  0.000000000000000
%f  0.0000000  0.000000000  0.00000000000  0.000000000000000
%i    0    0    0    0      0      0      0      0         0
%i    0    0    0    0      0      0      0      0         0
/* INFORMATION & ANALYSIS CENTER (IAC)            FINAL DATA
/* S/V CLOCKS ARE ALIGNED TO GNSS TIME                      
/* G:C1WC2W R:C1PC2P E:C1XC5X C:C2IC6I J:C1CC2S             
/* PCV:IGS14_2080 OL/AL:FES2004  NONE     YN ORB:CoN CLK:CoN
*  2019 11 28 20 15  0.00000000
PC01 -32312.879589  27060.093380    633.135491    196.158497
PC02   4425.505422  41952.697353    230.782424    710.058592
PC03 -14838.266575  39449.695655    769.611629     64.058866
PC04 -39584.941784  14465.910744    488.077460   -424.756177
PC05  21868.340642  36050.534523     53.199854   -156.329064
PC06 -22218.069292  22573.232447 -27682.480425    302.827926
PC07 -17841.197577  37509.138090  -5409.484778    206.817303
PC08  -5367.705100  25714.528359  33166.769811    -43.254768
PC09  -3904.959361  24556.068568 -33846.376229    149.490861
PC10  -6455.125018  40478.444582   9142.636736   -410.614021
PC11 -22480.815904 -12501.451353 -10676.017417    -29.385775
PC12  -4436.092921 -16074.095267 -22329.187187    302.597213
PC13   7526.952595  34319.876354  23589.045037    129.645231
PC14 -12330.376084 -10254.301900  22857.322992    342.119505
PC16 -18719.778409  23309.571207 -29773.589394   -935.350889
PC19  18440.194702   1242.128809 -20896.189359    256.998080
PC20   4776.671123  17121.247587 -21498.884055   -348.910778
PC21  12217.955370 -23304.293847   9327.329368    148.164486
PC22  21678.876612 -15607.070260  -8124.830572   -435.121471
PC23 -13910.951265   8913.610406 -22481.267755   -873.786483
PC24 -10367.433517 -25675.281133  -3348.471440   -880.605509
PC25 -17582.790884 -11147.038272 -18573.887726   -429.520917
PC26   1455.410557 -24613.436520  13036.858234    477.280567
PC27  -6458.691242  14694.817730  22817.610709    233.244580
PC28 -23397.659848   4715.652472  14454.957213    224.322018
PC29  26923.105568   6974.445295   2315.098535    152.454418
PC30  14585.512961  15596.940389  17960.507114    231.739378
PC32 -12049.283670  23383.156398  -9304.848858   -861.493636
PC33 -18418.071849  -1272.069401  20919.325306   -614.667482
PC34 -14899.579455 -15601.636597 -17710.612678   -269.815842
PC35  23292.208931  -5463.608999 -14338.388433   -602.195083
PC36  17315.056437  11744.617624  18494.065717   -891.442297
PC37  -2385.354545  24327.776416 -13453.389397   -819.249520
PE01 -16482.241776    941.798293 -24561.872953   -741.442238
PE02  16491.475228  -1008.082980  24565.237632     95.084730
PE03  27552.083188  -4373.843374  -9925.275932   -238.080901
PE04 -23028.885307  16602.385621  -8381.565803   -414.823253
PE05  15957.416856  10547.406082 -22596.215761   -427.324754
PE07   4899.522195 -19212.094828  21979.400282   -305.516622
PE08  22831.454020 -16790.677469   8559.822303   6256.649707
PE09  -4718.240776  19109.774381 -22105.678748   6238.149070
PE11   5949.977630  20768.343826  20230.753183    157.612750
PE12 -13979.781347   9688.573848  24232.788501   6077.310642
PE13  -5892.686738 -20634.680755 -20375.749005    395.846104
PE14 -18301.814367 -15638.508353 -20058.161164   -811.274717
PE15  13646.894658  -9894.658415 -24321.475454    886.212702
PE18  23963.873928   5554.183788   7605.860997   -906.628720
PE19 -27003.870976   2858.296947  11779.807927     -2.691605
PE21 -10499.108066 -20115.313929 -19002.356521   -568.443011
PE24  -1832.181358  29467.552218   2278.390148   5743.326997
PE25  10461.181974  20194.418716  18958.366129   -497.032309
PE26 -21959.489246 -19379.081913  -4232.366969   3824.157074
PE27   1708.151484 -29462.754275  -2224.970077    336.056022
PE30  13027.379954 -21368.470414  15795.424111   4347.544358
PE31 -12850.065635  21494.888627 -15768.789801   -470.700204
PE33 -25207.526603  -6648.814756  14026.342702   -471.678923
PE36  22001.073905  19294.953833   4483.599078    630.978843
PG01 -19640.563029 -10434.275058  14554.130100   -212.539454
PG02  13352.741416  22405.271291   5953.142562   -355.988364
PG03 -16462.936090   1745.958036  20690.280570    -43.991138
PG04 -26195.264153   3521.884025  -2117.303746    -14.193721
PG05   6625.503349  18223.557894 -18199.769170     -4.026876
PG06   2140.654072  21105.507756  16013.302858   -137.879188
PG07 -14173.770720   6167.170715 -21352.752649   -158.673665
PG08 -21976.944100  -6610.223523 -13524.235202    -14.943378
PG09 -24774.612643   7451.057987  -6082.047505    -95.046633
PG10  11288.987403 -23873.507431  -1141.990043   -152.329323
PG11 -24435.009729  -6862.970768   6765.738897   -434.680165
PG12  14213.261415   4328.553314  21788.391799    178.729236
PG13  14344.594968  12909.662967 -18403.939482    -29.984796
PG14   -412.012066 -15375.791063  21976.979729    -47.870953
PG15  23064.280910   4968.077483 -12865.361451   -269.402088
PG16  -3065.608330 -19344.956916 -17915.789309    -97.727715
PG17 -11600.697724  13847.140445  19869.715029    171.334245
PG18 -19607.611352 -16454.041696   6760.695409    103.227174
PG19  -3963.729615  14467.483019  21626.741895   -233.489394
PG20  14562.762325 -18859.924660 -11624.685605    527.558081
PG21  10757.698748 -10574.611518 -21080.257915    -78.948477
PG22 -14554.494489  -6797.777814  21373.287683   -774.588602
PG23 -26516.683120    583.977352   3971.132523   -152.779538
PG24  20848.486769  11222.055923  12209.588781     -5.514485
PG25  17288.163964 -11328.375439  16312.235863    -17.397940
PG26   2605.723155 -24568.284529  -9489.723485     94.305885
PG27 -11597.537939 -12595.718091 -20503.249323   -134.227525
PG28 -12403.330315  23560.593646    843.663585    753.071813
PG29  25628.849866  -4607.721768  -5327.157735     32.169530
PG30  -5838.887378  16877.143637 -19570.626849    -94.113136
PG31  -3277.988781 -22056.716517  14049.000689     -6.284706
PG32  10609.881161 -14918.762391  19256.105128    139.436470
PJ01 -34419.198113  24338.512596   6086.245402   -329.971145
PJ02 -18882.139795  28885.145214 -19661.127565     -0.167082
PJ03 -29693.993962  24431.539997  22467.884842     -7.778975
PJ07 -25347.538868  33701.630691     11.417047     -0.033976
PR01  19726.110606  -6316.499830 -14903.311996     53.354953
PR02  18342.094914 -16894.008165   5256.894276    399.947060
PR03   5191.663408 -15612.826500  19505.190619      5.591711
PR05 -20563.768311   7996.104704  12822.950611     40.255766
PR07  -4814.060222  15434.467547 -19718.201282    -30.039793
PR08  10643.813074   5407.129623 -22496.099904     14.135608
PR09  -4617.192307  20330.764851 -14634.544623    103.500852
PR11   9990.753561  17102.780113  16065.773528     18.454885
PR12  10974.261330      8.873629  23058.657462     83.278559
PR13   5564.876487 -18279.410605  16886.554377    -31.572182
PR14  -2708.789848 -25353.352799    931.663182     45.536718
PR15  -9566.837786 -17903.050478 -15419.774005    104.925711
PR16 -11080.783013    741.773393 -22978.525440     -0.104216
PR17  -6082.955050 -13048.625212 -21031.274823    279.539013
PR18 -20209.036385 -12959.006852  -8672.295229     16.128669
PR19 -23254.618016  -6640.663086   8099.082332    -66.285949
PR20 -12155.226376   5157.885910  21843.532222   -397.448889
PR21   6968.205138  13189.054594  20706.712646    -88.207919
PR23  21442.395248   2668.030636 -13565.515850    269.766502
PR26 -15208.113880   3309.490210  20212.757013     12.561410
EOF
